start=new Date('2023-01-30T00:00:00.000Z').valueOf();
sats=[{"APOAPSIS":"540.433","REF_FRAME":"TEME","INCLINATION":"53.2143","MEAN_ELEMENT_THEORY":"SGP4","TIME_SYSTEM":"UTC","CENTER_NAME":"EARTH","RA_OF_ASC_NODE":"323.6402","SITE":"AFETR","FILE":"3765015","EPOCH":"2023-01-29T20:19:01.618464","REV_AT_EPOCH":"3966","SEMIMAJOR_AXIS":"6917.893","TLE_LINE2":"2 52626  53.2143 323.6402 0000975 100.4163 259.6939 15.08835856 39663","OBJECT_ID":"2022-052AE","LAUNCH_DATE":"2022-05-14","NORAD_CAT_ID":"52626","ARG_OF_PERICENTER":"100.4163","PERIAPSIS":"539.084","DECAY_DATE":null,"PERIOD":"95.438","MEAN_MOTION_DOT":"0.00000977","COUNTRY_CODE":"US","ELEMENT_SET_NO":"999","GP_ID":"223957954","MEAN_MOTION":"15.08835856","BSTAR":"0.00007947700000","OBJECT_NAME":"STARLINK-3990","TLE_LINE1":"1 52626U 22052AE  23029.84654651  .00000977  00000-0  79477-4 0  9998","CLASSIFICATION_TYPE":"U","MEAN_ANOMALY":"259.6939","EPHEMERIS_TYPE":"0","ECCENTRICITY":"0.00009750","MEAN_MOTION_DDOT":"0.0000000000000","OBJECT_TYPE":"PAYLOAD","RCS_SIZE":"LARGE"},{"PERIAPSIS":"538.676","ARG_OF_PERICENTER":"84.9641","DECAY_DATE":null,"EPOCH":"2023-01-29T05:28:45.548544","LAUNCH_DATE":"2022-05-14","NORAD_CAT_ID":"52627","REV_AT_EPOCH":"3958","SEMIMAJOR_AXIS":"6917.863","OBJECT_ID":"2022-052AF","TLE_LINE2":"2 52627  53.2160 326.4089 0001520  84.9641 275.1525 15.08845819 39584","TIME_SYSTEM":"UTC","CENTER_NAME":"EARTH","MEAN_ELEMENT_THEORY":"SGP4","RA_OF_ASC_NODE":"326.4089","FILE":"3765015","SITE":"AFETR","APOAPSIS":"540.779","REF_FRAME":"TEME","INCLINATION":"53.2160","MEAN_MOTION_DDOT":"0.0000000000000","RCS_SIZE":"LARGE","OBJECT_TYPE":"PAYLOAD","CLASSIFICATION_TYPE":"U","MEAN_ANOMALY":"275.1525","EPHEMERIS_TYPE":"0","OBJECT_NAME":"STARLINK-3992","TLE_LINE1":"1 52627U 22052AF  23029.22830496  .00003388  00000-0  23084-3 0  9995","ECCENTRICITY":"0.00015200","GP_ID":"223958704","ELEMENT_SET_NO":"999","BSTAR":"0.00023084000000","MEAN_MOTION":"15.08845819","MEAN_MOTION_DOT":"0.00003388","PERIOD":"95.437","COUNTRY_CODE":"US"},{"ECCENTRICITY":"0.00012050","CLASSIFICATION_TYPE":"U","MEAN_ANOMALY":"265.4993","EPHEMERIS_TYPE":"0","OBJECT_NAME":"STARLINK-4001","TLE_LINE1":"1 52628U 22052AG  23029.27659927  .00006692  00000-0  43802-3 0  9990","RCS_SIZE":"LARGE","OBJECT_TYPE":"PAYLOAD","MEAN_MOTION_DDOT":"0.0000000000000","COUNTRY_CODE":"US","MEAN_MOTION_DOT":"0.00006692","PERIOD":"95.437","BSTAR":"0.00043802000000","MEAN_MOTION":"15.08851860","ELEMENT_SET_NO":"999","GP_ID":"223957452","LAUNCH_DATE":"2022-05-14","NORAD_CAT_ID":"52628","REV_AT_EPOCH":"3937","SEMIMAJOR_AXIS":"6917.844","TLE_LINE2":"2 52628  53.2152 341.1966 0001205  94.6136 265.4993 15.08851860 39372","OBJECT_ID":"2022-052AG","EPOCH":"2023-01-29T06:38:18.176928","DECAY_DATE":null,"PERIAPSIS":"538.876","ARG_OF_PERICENTER":"94.6136","APOAPSIS":"540.543","REF_FRAME":"TEME","INCLINATION":"53.2152","FILE":"3765015","SITE":"AFETR","TIME_SYSTEM":"UTC","CENTER_NAME":"EARTH","MEAN_ELEMENT_THEORY":"SGP4","RA_OF_ASC_NODE":"341.1966"},{"ECCENTRICITY":"0.00013700","OBJECT_NAME":"STARLINK-4022","TLE_LINE1":"1 52629U 22052AH  23029.88702794  .00002444  00000-0  17160-3 0  9998","CLASSIFICATION_TYPE":"U","EPHEMERIS_TYPE":"0","MEAN_ANOMALY":"277.8983","OBJECT_TYPE":"PAYLOAD","RCS_SIZE":"LARGE","MEAN_MOTION_DDOT":"0.0000000000000","COUNTRY_CODE":"US","PERIOD":"95.438","MEAN_MOTION_DOT":"0.00002444","MEAN_MOTION":"15.08837110","BSTAR":"0.00017160000000","GP_ID":"223957702","ELEMENT_SET_NO":"999","REV_AT_EPOCH":"3967","SEMIMAJOR_AXIS":"6917.889","TLE_LINE2":"2 52629  53.2146 323.4574 0001370  82.2164 277.8983 15.08837110 39672","OBJECT_ID":"2022-052AH","LAUNCH_DATE":"2022-05-14","NORAD_CAT_ID":"52629","EPOCH":"2023-01-29T21:17:19.214016","DECAY_DATE":null,"ARG_OF_PERICENTER":"82.2164","PERIAPSIS":"538.806","APOAPSIS":"540.702","INCLINATION":"53.2146","REF_FRAME":"TEME","SITE":"AFETR","FILE":"3765015","TIME_SYSTEM":"UTC","CENTER_NAME":"EARTH","MEAN_ELEMENT_THEORY":"SGP4","RA_OF_ASC_NODE":"323.4574"},{"MEAN_MOTION_DOT":"0.00000669","PERIOD":"95.438","COUNTRY_CODE":"US","ELEMENT_SET_NO":"999","GP_ID":"223958454","BSTAR":"0.00006012200000","MEAN_MOTION":"15.08837496","CLASSIFICATION_TYPE":"U","EPHEMERIS_TYPE":"0","MEAN_ANOMALY":"281.8206","OBJECT_NAME":"STARLINK-3989","TLE_LINE1":"1 52630U 22052AJ  23029.83182541  .00000669  00000-0  60122-4 0  9991","ECCENTRICITY":"0.00010590","MEAN_MOTION_DDOT":"0.0000000000000","RCS_SIZE":"LARGE","OBJECT_TYPE":"PAYLOAD","APOAPSIS":"540.486","INCLINATION":"53.2142","REF_FRAME":"TEME","TIME_SYSTEM":"UTC","CENTER_NAME":"EARTH","MEAN_ELEMENT_THEORY":"SGP4","RA_OF_ASC_NODE":"323.7036","FILE":"3765015","SITE":"AFETR","EPOCH":"2023-01-29T19:57:49.715424","LAUNCH_DATE":"2022-05-14","NORAD_CAT_ID":"52630","REV_AT_EPOCH":"3966","SEMIMAJOR_AXIS":"6917.888","TLE_LINE2":"2 52630  53.2142 323.7036 0001059  78.2905 281.8206 15.08837496 39667","OBJECT_ID":"2022-052AJ","PERIAPSIS":"539.020","ARG_OF_PERICENTER":"78.2905","DECAY_DATE":null},{"RCS_SIZE":"LARGE","OBJECT_TYPE":"PAYLOAD","MEAN_MOTION_DDOT":"0.0000000000000","ECCENTRICITY":"0.00013860","CLASSIFICATION_TYPE":"U","MEAN_ANOMALY":"267.4127","EPHEMERIS_TYPE":"0","OBJECT_NAME":"STARLINK-3794","TLE_LINE1":"1 52631U 22052AK  23029.81710827  .00001737  00000-0  12719-3 0  9999","BSTAR":"0.00012719000000","MEAN_MOTION":"15.08839695","ELEMENT_SET_NO":"999","GP_ID":"223958205","COUNTRY_CODE":"US","MEAN_MOTION_DOT":"0.00001737","PERIOD":"95.438","DECAY_DATE":null,"PERIAPSIS":"538.788","ARG_OF_PERICENTER":"92.7024","LAUNCH_DATE":"2022-05-14","NORAD_CAT_ID":"52631","REV_AT_EPOCH":"3967","SEMIMAJOR_AXIS":"6917.881","TLE_LINE2":"2 52631  53.2131 323.7727 0001386  92.7024 267.4127 15.08839695 39675","OBJECT_ID":"2022-052AK","EPOCH":"2023-01-29T19:36:38.154528","FILE":"3765015","SITE":"AFETR","MEAN_ELEMENT_THEORY":"SGP4","TIME_SYSTEM":"UTC","CENTER_NAME":"EARTH","RA_OF_ASC_NODE":"323.7727","APOAPSIS":"540.705","REF_FRAME":"TEME","INCLINATION":"53.2131"},{"FILE":"3765015","SITE":"AFETR","CENTER_NAME":"EARTH","TIME_SYSTEM":"UTC","MEAN_ELEMENT_THEORY":"SGP4","RA_OF_ASC_NODE":"326.3949","APOAPSIS":"540.437","REF_FRAME":"TEME","INCLINATION":"53.2154","DECAY_DATE":null,"PERIAPSIS":"538.872","ARG_OF_PERICENTER":"75.7666","LAUNCH_DATE":"2022-05-14","NORAD_CAT_ID":"52632","SEMIMAJOR_AXIS":"6917.789","REV_AT_EPOCH":"3958","TLE_LINE2":"2 52632  53.2154 326.3949 0001131  75.7666 284.3452 15.08869847 39588","OBJECT_ID":"2022-052AL","EPOCH":"2023-01-29T05:34:03.803808","BSTAR":"0.00156590000000","MEAN_MOTION":"15.08869847","GP_ID":"223956953","ELEMENT_SET_NO":"999","COUNTRY_CODE":"US","MEAN_MOTION_DOT":"0.00024742","PERIOD":"95.436","RCS_SIZE":"LARGE","OBJECT_TYPE":"PAYLOAD","MEAN_MOTION_DDOT":"0.0000000000000","ECCENTRICITY":"0.00011310","CLASSIFICATION_TYPE":"U","MEAN_ANOMALY":"284.3452","EPHEMERIS_TYPE":"0","OBJECT_NAME":"STARLINK-3995","TLE_LINE1":"1 52632U 22052AL  23029.23198847  .00024742  00000-0  15659-2 0  9994"},{"MEAN_MOTION_DDOT":"0.0000000000000","OBJECT_TYPE":"PAYLOAD","RCS_SIZE":"LARGE","OBJECT_NAME":"STARLINK-3994","TLE_LINE1":"1 52633U 22052AM  23029.20990205  .00011395  00000-0  73251-3 0  9993","CLASSIFICATION_TYPE":"U","EPHEMERIS_TYPE":"0","MEAN_ANOMALY":"254.5982","ECCENTRICITY":"0.00011500","GP_ID":"223957203","ELEMENT_SET_NO":"999","BSTAR":"0.00073251000000","MEAN_MOTION":"15.08857254","PERIOD":"95.436","MEAN_MOTION_DOT":"0.00011395","COUNTRY_CODE":"US","ARG_OF_PERICENTER":"105.5137","PERIAPSIS":"538.897","DECAY_DATE":null,"EPOCH":"2023-01-29T05:02:15.537120","REV_AT_EPOCH":"3958","SEMIMAJOR_AXIS":"6917.828","OBJECT_ID":"2022-052AM","TLE_LINE2":"2 52633  53.2144 326.4951 0001150 105.5137 254.5982 15.08857254 39584","LAUNCH_DATE":"2022-05-14","NORAD_CAT_ID":"52633","CENTER_NAME":"EARTH","TIME_SYSTEM":"UTC","MEAN_ELEMENT_THEORY":"SGP4","RA_OF_ASC_NODE":"326.4951","SITE":"AFETR","FILE":"3765015","APOAPSIS":"540.488","REF_FRAME":"TEME","INCLINATION":"53.2144"},{"REF_FRAME":"TEME","INCLINATION":"53.2143","APOAPSIS":"540.628","RA_OF_ASC_NODE":"323.7647","TIME_SYSTEM":"UTC","MEAN_ELEMENT_THEORY":"SGP4","CENTER_NAME":"EARTH","SITE":"AFETR","FILE":"3765015","EPOCH":"2023-01-29T19:38:00.651840","OBJECT_ID":"2022-052AN","TLE_LINE2":"2 52634  53.2143 323.7647 0001279  79.6945 280.4191 15.08840788 39669","REV_AT_EPOCH":"3966","SEMIMAJOR_AXIS":"6917.878","NORAD_CAT_ID":"52634","LAUNCH_DATE":"2022-05-14","ARG_OF_PERICENTER":"79.6945","PERIAPSIS":"538.858","DECAY_DATE":null,"PERIOD":"95.438","MEAN_MOTION_DOT":"0.00002361","COUNTRY_CODE":"US","GP_ID":"223957955","ELEMENT_SET_NO":"999","MEAN_MOTION":"15.08840788","BSTAR":"0.00016639000000","TLE_LINE1":"1 52634U 22052AN  23029.81806310  .00002361  00000-0  16639-3 0  9994","OBJECT_NAME":"STARLINK-3974","MEAN_ANOMALY":"280.4191","EPHEMERIS_TYPE":"0","CLASSIFICATION_TYPE":"U","ECCENTRICITY":"0.00012790","MEAN_MOTION_DDOT":"0.0000000000000","OBJECT_TYPE":"PAYLOAD","RCS_SIZE":"LARGE"},{"DECAY_DATE":null,"PERIAPSIS":"538.786","ARG_OF_PERICENTER":"90.6413","REV_AT_EPOCH":"3981","SEMIMAJOR_AXIS":"6917.881","TLE_LINE2":"2 52635  53.2172 313.5918 0001388  90.6413 269.4738 15.08839875 39810","OBJECT_ID":"2022-052AP","LAUNCH_DATE":"2022-05-14","NORAD_CAT_ID":"52635","EPOCH":"2023-01-29T20:30:56.737440","SITE":"AFETR","FILE":"3765015","TIME_SYSTEM":"UTC","MEAN_ELEMENT_THEORY":"SGP4","CENTER_NAME":"EARTH","RA_OF_ASC_NODE":"313.5918","APOAPSIS":"540.706","REF_FRAME":"TEME","INCLINATION":"53.2172","OBJECT_TYPE":"PAYLOAD","RCS_SIZE":"LARGE","MEAN_MOTION_DDOT":"0.0000000000000","ECCENTRICITY":"0.00013880","OBJECT_NAME":"STARLINK-3978","TLE_LINE1":"1 52635U 22052AP  23029.85482335  .00001131  00000-0  89122-4 0  9998","CLASSIFICATION_TYPE":"U","MEAN_ANOMALY":"269.4738","EPHEMERIS_TYPE":"0","BSTAR":"0.00008912200000","MEAN_MOTION":"15.08839875","GP_ID":"223958705","ELEMENT_SET_NO":"999","COUNTRY_CODE":"US","PERIOD":"95.438","MEAN_MOTION_DOT":"0.00001131"}];
